start=new Date('2023-05-14T00:00:00.000Z').valueOf();
sats=[{"ELEMENT_SET_NO":"999","LAUNCH_DATE":"2022-05-18","REV_AT_EPOCH":"5551","MEAN_MOTION_DOT":"0.00000221","SEMIMAJOR_AXIS":"6917.834","TLE_LINE2":"2 52658  53.2174 104.6381 0001377  83.3434 276.7715 15.08855103 55513","CLASSIFICATION_TYPE":"U","MEAN_MOTION":"15.08855103","EPOCH":"2023-05-13T04:54:28.920960","DECAY_DATE":null,"COUNTRY_CODE":"US","OBJECT_ID":"2022-053C","OBJECT_TYPE":"PAYLOAD","BSTAR":"0.00003197100000","MEAN_ELEMENT_THEORY":"SGP4","APOAPSIS":"540.652","INCLINATION":"53.2174","GP_ID":"231749177","PERIAPSIS":"538.747","EPHEMERIS_TYPE":"0","ARG_OF_PERICENTER":"83.3434","NORAD_CAT_ID":"52658","TIME_SYSTEM":"UTC","TLE_LINE1":"1 52658U 22053C   23133.20450140  .00000221  00000-0  31971-4 0  9996","OBJECT_NAME":"STARLINK-4082","PERIOD":"95.437","CENTER_NAME":"EARTH","ECCENTRICITY":"0.00013770","RCS_SIZE":"LARGE","FILE":"3906915","REF_FRAME":"TEME","MEAN_ANOMALY":"276.7715","RA_OF_ASC_NODE":"104.6381","SITE":"AFETR","MEAN_MOTION_DDOT":"0.0000000000000"},{"MEAN_ELEMENT_THEORY":"SGP4","APOAPSIS":"540.691","INCLINATION":"53.2168","GP_ID":"231747925","PERIAPSIS":"538.746","EPHEMERIS_TYPE":"0","ARG_OF_PERICENTER":"84.2393","NORAD_CAT_ID":"52659","TIME_SYSTEM":"UTC","TLE_LINE1":"1 52659U 22053D   23133.20545886  .00001643  00000-0  12129-3 0  9991","OBJECT_NAME":"STARLINK-3960","CENTER_NAME":"EARTH","PERIOD":"95.437","ECCENTRICITY":"0.00014060","FILE":"3906915","RCS_SIZE":"LARGE","MEAN_ANOMALY":"275.8759","REF_FRAME":"TEME","SITE":"AFETR","RA_OF_ASC_NODE":"104.6310","MEAN_MOTION_DDOT":"0.0000000000000","LAUNCH_DATE":"2022-05-18","REV_AT_EPOCH":"5550","ELEMENT_SET_NO":"999","MEAN_MOTION_DOT":"0.00001643","SEMIMAJOR_AXIS":"6917.854","TLE_LINE2":"2 52659  53.2168 104.6310 0001406  84.2393 275.8759 15.08848718 55507","CLASSIFICATION_TYPE":"U","MEAN_MOTION":"15.08848718","EPOCH":"2023-05-13T04:55:51.645504","DECAY_DATE":null,"COUNTRY_CODE":"US","OBJECT_ID":"2022-053D","OBJECT_TYPE":"PAYLOAD","BSTAR":"0.00012129000000"},{"DECAY_DATE":null,"EPOCH":"2023-05-13T04:43:53.121504","MEAN_MOTION":"15.08850330","BSTAR":"0.00011056000000","OBJECT_TYPE":"PAYLOAD","OBJECT_ID":"2022-053E","COUNTRY_CODE":"US","SEMIMAJOR_AXIS":"6917.849","MEAN_MOTION_DOT":"0.00001473","LAUNCH_DATE":"2022-05-18","ELEMENT_SET_NO":"999","REV_AT_EPOCH":"5539","TLE_LINE2":"2 52660  53.2161 104.6694 0001246  89.3970 270.7164 15.08850330 55390","CLASSIFICATION_TYPE":"U","OBJECT_NAME":"STARLINK-4081","TLE_LINE1":"1 52660U 22053E   23133.19714261  .00001473  00000-0  11056-3 0  9995","TIME_SYSTEM":"UTC","NORAD_CAT_ID":"52660","RA_OF_ASC_NODE":"104.6694","SITE":"AFETR","MEAN_MOTION_DDOT":"0.0000000000000","MEAN_ANOMALY":"270.7164","REF_FRAME":"TEME","ECCENTRICITY":"0.00012460","FILE":"3906915","RCS_SIZE":"LARGE","CENTER_NAME":"EARTH","PERIOD":"95.437","APOAPSIS":"540.576","GP_ID":"231748175","INCLINATION":"53.2161","MEAN_ELEMENT_THEORY":"SGP4","ARG_OF_PERICENTER":"89.3970","PERIAPSIS":"538.852","EPHEMERIS_TYPE":"0"},{"SITE":"AFETR","RA_OF_ASC_NODE":"104.6835","MEAN_MOTION_DDOT":"0.0000000000000","REF_FRAME":"TEME","MEAN_ANOMALY":"273.5459","ECCENTRICITY":"0.00013850","FILE":"3906915","RCS_SIZE":"LARGE","PERIOD":"95.437","CENTER_NAME":"EARTH","OBJECT_NAME":"STARLINK-4042","TLE_LINE1":"1 52661U 22053F   23133.19346074  .00002168  00000-0  15422-3 0  9992","TIME_SYSTEM":"UTC","NORAD_CAT_ID":"52661","ARG_OF_PERICENTER":"86.5692","PERIAPSIS":"538.752","EPHEMERIS_TYPE":"0","APOAPSIS":"540.668","INCLINATION":"53.2160","GP_ID":"231748927","MEAN_ELEMENT_THEORY":"SGP4","OBJECT_TYPE":"PAYLOAD","BSTAR":"0.00015422000000","OBJECT_ID":"2022-053F","COUNTRY_CODE":"US","DECAY_DATE":null,"EPOCH":"2023-05-13T04:38:35.007936","MEAN_MOTION":"15.08851626","TLE_LINE2":"2 52661  53.2160 104.6835 0001385  86.5692 273.5459 15.08851626 55321","CLASSIFICATION_TYPE":"U","SEMIMAJOR_AXIS":"6917.845","MEAN_MOTION_DOT":"0.00002168","REV_AT_EPOCH":"5532","LAUNCH_DATE":"2022-05-18","ELEMENT_SET_NO":"999"},{"OBJECT_ID":"2022-053G","BSTAR":"0.00004314400000","OBJECT_TYPE":"PAYLOAD","COUNTRY_CODE":"US","DECAY_DATE":null,"MEAN_MOTION":"15.08844624","EPOCH":"2023-05-13T15:35:41.968320","CLASSIFICATION_TYPE":"U","TLE_LINE2":"2 52662  53.2165 102.6354 0000945  84.4445 275.6655 15.08844624 55393","MEAN_MOTION_DOT":"0.00000399","SEMIMAJOR_AXIS":"6917.866","REV_AT_EPOCH":"5539","LAUNCH_DATE":"2022-05-18","ELEMENT_SET_NO":"999","REF_FRAME":"TEME","MEAN_ANOMALY":"275.6655","MEAN_MOTION_DDOT":"0.0000000000000","SITE":"AFETR","RA_OF_ASC_NODE":"102.6354","CENTER_NAME":"EARTH","PERIOD":"95.437","RCS_SIZE":"LARGE","FILE":"3907148","ECCENTRICITY":"0.00009450","TLE_LINE1":"1 52662U 22053G   23133.64979130  .00000399  00000-0  43144-4 0  9995","OBJECT_NAME":"STARLINK-4044","NORAD_CAT_ID":"52662","TIME_SYSTEM":"UTC","ARG_OF_PERICENTER":"84.4445","PERIAPSIS":"539.078","EPHEMERIS_TYPE":"0","INCLINATION":"53.2165","GP_ID":"231779906","APOAPSIS":"540.385","MEAN_ELEMENT_THEORY":"SGP4"},{"OBJECT_NAME":"STARLINK-4037","TLE_LINE1":"1 52663U 22053H   23133.64611415  .00000015  00000-0  19040-4 0  9998","TIME_SYSTEM":"UTC","NORAD_CAT_ID":"52663","MEAN_MOTION_DDOT":"0.0000000000000","SITE":"AFETR","RA_OF_ASC_NODE":"102.6521","REF_FRAME":"TEME","MEAN_ANOMALY":"262.2637","ECCENTRICITY":"0.00010850","FILE":"3907148","RCS_SIZE":"LARGE","CENTER_NAME":"EARTH","PERIOD":"95.438","APOAPSIS":"540.508","INCLINATION":"53.2157","GP_ID":"231780149","MEAN_ELEMENT_THEORY":"SGP4","ARG_OF_PERICENTER":"97.8478","PERIAPSIS":"539.007","EPHEMERIS_TYPE":"0","DECAY_DATE":null,"EPOCH":"2023-05-13T15:30:24.262560","MEAN_MOTION":"15.08836085","BSTAR":"0.00001904000000","OBJECT_TYPE":"PAYLOAD","OBJECT_ID":"2022-053H","COUNTRY_CODE":"US","SEMIMAJOR_AXIS":"6917.892","MEAN_MOTION_DOT":"0.00000015","ELEMENT_SET_NO":"999","LAUNCH_DATE":"2022-05-18","REV_AT_EPOCH":"5539","TLE_LINE2":"2 52663  53.2157 102.6521 0001085  97.8478 262.2637 15.08836085 55395","CLASSIFICATION_TYPE":"U"},{"EPHEMERIS_TYPE":"0","PERIAPSIS":"539.071","ARG_OF_PERICENTER":"95.5788","MEAN_ELEMENT_THEORY":"SGP4","INCLINATION":"53.2147","GP_ID":"231780909","APOAPSIS":"540.370","RCS_SIZE":"LARGE","FILE":"3907148","ECCENTRICITY":"0.00009390","PERIOD":"95.437","CENTER_NAME":"EARTH","SITE":"AFETR","MEAN_MOTION_DDOT":"0.0000000000000","RA_OF_ASC_NODE":"102.6194","MEAN_ANOMALY":"264.5311","REF_FRAME":"TEME","TIME_SYSTEM":"UTC","NORAD_CAT_ID":"52664","OBJECT_NAME":"STARLINK-4070","TLE_LINE1":"1 52664U 22053J   23133.65346289  .00000401  00000-0  43294-4 0  9991","CLASSIFICATION_TYPE":"U","TLE_LINE2":"2 52664  53.2147 102.6194 0000939  95.5788 264.5311 15.08848213 55397","LAUNCH_DATE":"2022-05-18","REV_AT_EPOCH":"5539","ELEMENT_SET_NO":"999","SEMIMAJOR_AXIS":"6917.855","MEAN_MOTION_DOT":"0.00000401","COUNTRY_CODE":"US","OBJECT_TYPE":"PAYLOAD","BSTAR":"0.00004329400000","OBJECT_ID":"2022-053J","EPOCH":"2023-05-13T15:40:59.193696","MEAN_MOTION":"15.08848213","DECAY_DATE":null},{"FILE":"3907148","RCS_SIZE":"MEDIUM","ECCENTRICITY":"0.00010990","PERIOD":"95.438","CENTER_NAME":"EARTH","RA_OF_ASC_NODE":"102.6994","SITE":"AFETR","MEAN_MOTION_DDOT":"0.0000000000000","MEAN_ANOMALY":"274.5391","REF_FRAME":"TEME","TIME_SYSTEM":"UTC","NORAD_CAT_ID":"52665","OBJECT_NAME":"STARLINK-4064","TLE_LINE1":"1 52665U 22053K   23133.63507089  .00000618  00000-0  56893-4 0  9996","PERIAPSIS":"538.984","EPHEMERIS_TYPE":"0","ARG_OF_PERICENTER":"85.5727","MEAN_ELEMENT_THEORY":"SGP4","INCLINATION":"53.2173","GP_ID":"231781145","APOAPSIS":"540.505","COUNTRY_CODE":"US","OBJECT_TYPE":"PAYLOAD","BSTAR":"0.00005689300000","OBJECT_ID":"2022-053K","EPOCH":"2023-05-13T15:14:30.124896","MEAN_MOTION":"15.08840303","DECAY_DATE":null,"CLASSIFICATION_TYPE":"U","TLE_LINE2":"2 52665  53.2173 102.6994 0001099  85.5727 274.5391 15.08840303 55396","LAUNCH_DATE":"2022-05-18","ELEMENT_SET_NO":"999","REV_AT_EPOCH":"5539","SEMIMAJOR_AXIS":"6917.879","MEAN_MOTION_DOT":"0.00000618"},{"TLE_LINE1":"1 52666U 22053L   23133.64339014  .00000323  00000-0  38398-4 0  9992","OBJECT_NAME":"STARLINK-4079","NORAD_CAT_ID":"52666","TIME_SYSTEM":"UTC","MEAN_ANOMALY":"265.7483","REF_FRAME":"TEME","MEAN_MOTION_DDOT":"0.0000000000000","SITE":"AFETR","RA_OF_ASC_NODE":"102.6745","PERIOD":"95.438","CENTER_NAME":"EARTH","FILE":"3907148","RCS_SIZE":"LARGE","ECCENTRICITY":"0.00011990","INCLINATION":"53.2166","GP_ID":"231779407","APOAPSIS":"540.581","MEAN_ELEMENT_THEORY":"SGP4","ARG_OF_PERICENTER":"94.3646","EPHEMERIS_TYPE":"0","PERIAPSIS":"538.922","DECAY_DATE":null,"MEAN_MOTION":"15.08837992","EPOCH":"2023-05-13T15:26:28.908096","OBJECT_ID":"2022-053L","OBJECT_TYPE":"PAYLOAD","BSTAR":"0.00003839800000","COUNTRY_CODE":"US","MEAN_MOTION_DOT":"0.00000323","SEMIMAJOR_AXIS":"6917.887","LAUNCH_DATE":"2022-05-18","REV_AT_EPOCH":"5539","ELEMENT_SET_NO":"999","CLASSIFICATION_TYPE":"U","TLE_LINE2":"2 52666  53.2166 102.6745 0001199  94.3646 265.7483 15.08837992 55396"},{"MEAN_ELEMENT_THEORY":"SGP4","APOAPSIS":"540.574","GP_ID":"231779649","INCLINATION":"53.2169","PERIAPSIS":"538.925","EPHEMERIS_TYPE":"0","ARG_OF_PERICENTER":"84.2741","NORAD_CAT_ID":"52667","TIME_SYSTEM":"UTC","TLE_LINE1":"1 52667U 22053M   23133.63139282  .00001213  00000-0  94297-4 0  9996","OBJECT_NAME":"STARLINK-4076","CENTER_NAME":"EARTH","PERIOD":"95.438","ECCENTRICITY":"0.00011920","RCS_SIZE":"LARGE","FILE":"3907148","MEAN_ANOMALY":"275.8387","REF_FRAME":"TEME","MEAN_MOTION_DDOT":"0.0000000000000","SITE":"AFETR","RA_OF_ASC_NODE":"102.7181","LAUNCH_DATE":"2022-05-18","ELEMENT_SET_NO":"999","REV_AT_EPOCH":"5539","MEAN_MOTION_DOT":"0.00001213","SEMIMAJOR_AXIS":"6917.885","TLE_LINE2":"2 52667  53.2169 102.7181 0001192  84.2741 275.8387 15.08838629 55395","CLASSIFICATION_TYPE":"U","MEAN_MOTION":"15.08838629","EPOCH":"2023-05-13T15:09:12.339648","DECAY_DATE":null,"COUNTRY_CODE":"US","OBJECT_ID":"2022-053M","BSTAR":"0.00009429700000","OBJECT_TYPE":"PAYLOAD"}];
